NORAD_CAT_ID,OBJECT_NAME,OBJECT_TYPE,EPOCH,MEAN_MOTION,ECCENTRICITY,INCLINATION,RA_OF_ASC_NODE,ARG_OF_PERICENTER,MEAN_ANOMALY,BSTAR,MEAN_MOTION_DOT,MEAN_MOTION_DDOT,TLE_LINE0,TLE_LINE1,TLE_LINE2,SEMIMAJOR_AXIS,PERIOD,APOGEE,PERIGEE,DECAYED
53168.0,STARLINK-4105,PAYLOAD,2024-05-25 21:27:56,15.08839323,0.0001995,53.2167,214.6423,173.5037,186.5982,9.322e-05,1.196e-05,0.0,0 STARLINK-4105,1 53168U 22083AN  24146.89440478  .00001196  00000-0  93220-4 0  9996,2 53168  53.2167 214.6423 0001995 173.5037 186.5982 15.08839323103444,6917.882,95.438,541.128,538.367,0.0
53168.0,STARLINK-4105,PAYLOAD,2024-05-26 13:21:48,15.08844988,9.54e-05,53.2164,211.67,76.5896,283.5203,0.00013094,1.797e-05,0.0,0 STARLINK-4105,1 53168U 22083AN  24147.55680667  .00001797  00000-0  13094-3 0  9993,2 53168  53.2164 211.6700 0000954  76.5896 283.5203 15.08844988102913,6917.865,95.437,540.39,539.07,0.0
53168.0,STARLINK-4105,PAYLOAD,2024-05-27 11:37:12,15.08836964,0.0001215,53.2167,207.4962,103.4069,256.7059,0.00024987,3.691e-05,0.0,0 STARLINK-4105,1 53168U 22083AN  24148.48416873  .00003691  00000-0  24987-3 0  9990,2 53168  53.2167 207.4962 0001215 103.4069 256.7059 15.08836964103683,6917.89,95.438,540.595,538.914,0.0
53168.0,STARLINK-4105,PAYLOAD,2024-05-27 13:12:35,15.08838314,0.0001127,53.2164,207.199,96.5528,263.5593,0.00023538,3.46e-05,0.0,0 STARLINK-4105,1 53168U 22083AN  24148.55040788  .00003460  00000-0  23538-3 0  9991,2 53168  53.2164 207.1990 0001127  96.5528 263.5593 15.08838314103064,6917.886,95.438,540.53,538.971,0.0
53168.0,STARLINK-4105,PAYLOAD,2024-05-28 09:52:35,15.08846462,0.0001136,53.2163,203.3323,94.9026,265.2096,4.2857e-05,3.94e-06,0.0,0 STARLINK-4105,1 53168U 22083AN  24149.41152736  .00000394  00000-0  42857-4 0  9993,2 53168  53.2163 203.3323 0001136  94.9026 265.2096 15.08846462103190,6917.861,95.437,540.512,538.94,0.0
53168.0,STARLINK-4105,PAYLOAD,2024-05-29 03:21:50,15.08846793,0.0001162,53.2156,200.0616,86.4583,273.6542,1.7737e-05,-5e-08,0.0,0 STARLINK-4105,1 53168U 22083AN  24150.14016431 -.00000005  00000-0  17737-4 0  9995,2 53168  53.2156 200.0616 0001162  86.4583 273.6542 15.08846793103932,6917.86,95.437,540.528,538.921,0.0
53168.0,STARLINK-4105,PAYLOAD,2024-05-29 12:54:08,15.08846964,0.0001142,53.216,198.2775,89.5253,270.587,1.3551e-05,-7.2e-07,0.0,0 STARLINK-4105,1 53168U 22083AN  24150.53760241 -.00000072  00000-0  13551-4 0  9997,2 53168  53.2160 198.2775 0001142  89.5253 270.5870 15.08846964103364,6917.859,95.437,540.514,538.934,0.0
53168.0,STARLINK-4105,PAYLOAD,2024-05-30 12:44:56,15.08839946,0.0001188,53.2164,193.8173,89.3798,270.7331,7.1586e-06,-1.74e-06,0.0,0 STARLINK-4105,1 53168U 22083AN  24151.53120544 -.00000174  00000-0  71586-5 0  9990,2 53168  53.2164 193.8173 0001188  89.3798 270.7331 15.08839946104146,6917.881,95.438,540.567,538.924,0.0
53168.0,STARLINK-4105,PAYLOAD,2024-05-31 09:24:56,15.08840425,0.0001197,53.2165,189.9514,90.4234,269.6895,1.448e-05,-5.7e-07,0.0,0 STARLINK-4105,1 53168U 22083AN  24152.39232423 -.00000057  00000-0  14480-4 0  9994,2 53168  53.2165 189.9514 0001197  90.4234 269.6895 15.08840425103640,6917.879,95.438,540.572,538.916,0.0
53168.0,STARLINK-4105,PAYLOAD,2024-05-31 18:57:15,15.08843954,0.0001331,53.2178,188.1687,96.0759,264.0385,3.4971e-05,2.69e-06,0.0,0 STARLINK-4105,1 53168U 22083AN  24152.78976070  .00000269  00000-0  34971-4 0  9991,2 53168  53.2178 188.1687 0001331  96.0759 264.0385 15.08843954104330,6917.868,95.437,540.654,538.813,0.0
53168.0,STARLINK-4105,PAYLOAD,2024-06-01 02:54:12,15.08828577,0.0001394,53.2167,186.6808,86.3112,273.804,3.2888e-06,-2.36e-06,0.0,0 STARLINK-4105,1 53168U 22083AN  24153.12097228 -.00000236  00000-0  32888-5 0  9990,2 53168  53.2167 186.6808 0001394  86.3112 273.8040 15.08828577104385,6917.915,95.438,540.745,538.816,0.0
53168.0,STARLINK-4105,PAYLOAD,2024-06-01 09:15:44,15.08828771,0.0001222,53.2164,185.4923,91.1224,268.9908,-2.2355e-06,-3.23e-06,0.0,0 STARLINK-4105,1 53168U 22083AN  24153.38593370 -.00000323  00000-0 -22355-5 0  9993,2 53168  53.2164 185.4923 0001222  91.1224 268.9908 15.08828771103793,6917.915,95.438,540.625,538.934,0.0
53168.0,STARLINK-4105,PAYLOAD,2024-06-02 07:31:08,15.0883213,0.0001272,53.2165,181.3296,93.8587,266.2551,1.2721e-05,-8.5e-07,0.0,0 STARLINK-4105,1 53168U 22083AN  24154.31329578 -.00000085  00000-0  12721-4 0  9993,2 53168  53.2165 181.3296 0001272  93.8587 266.2551 15.08832130104563,6917.904,95.438,540.649,538.889,0.0
53168.0,STARLINK-4105,PAYLOAD,2024-06-03 10:32:42,15.08829728,0.0001184,53.2149,176.2722,83.9162,276.1965,5.2756e-05,5.52e-06,0.0,0 STARLINK-4105,1 53168U 22083AN  24155.43938083  .00000552  00000-0  52756-4 0  9994,2 53168  53.2149 176.2722 0001184  83.9162 276.1965 15.08829728104730,6917.912,95.438,540.596,538.958,0.0
53168.0,STARLINK-4105,PAYLOAD,2024-06-03 18:29:38,15.08827519,0.0001173,53.2156,174.7861,89.8542,270.2585,4.3502e-06,-2.19e-06,0.0,0 STARLINK-4105,1 53168U 22083AN  24155.77058639 -.00000219  00000-0  43502-5 0  9992,2 53168  53.2156 174.7861 0001173  89.8542 270.2585 15.08827519104155,6917.919,95.438,540.595,538.972,0.0
53168.0,STARLINK-4105,PAYLOAD,2024-06-04 08:48:06,15.08833434,0.0001132,53.2148,172.1086,95.4855,264.6266,1.8323e-05,4e-08,0.0,0 STARLINK-4105,1 53168U 22083AN  24156.36674609  .00000004  00000-0  18323-4 0  9992,2 53168  53.2148 172.1086 0001132  95.4855 264.6266 15.08833434104248,6917.9,95.438,540.549,538.982,0.0
53168.0,STARLINK-4105,PAYLOAD,2024-06-04 18:20:26,15.08824949,0.0001109,53.2138,170.3241,100.3979,259.7138,-4.281e-05,-9.69e-06,0.0,0 STARLINK-4105,1 53168U 22083AN  24156.76419628 -.00000969  00000-0 -42810-4 0  9994,2 53168  53.2138 170.3241 0001109 100.3979 259.7138 15.08824949104937,6917.926,95.439,540.559,539.024,0.0
53168.0,STARLINK-4105,PAYLOAD,2024-06-05 05:28:07,15.08836529,0.0001361,53.2141,168.2426,73.0878,287.0263,0.00010157,1.329e-05,0.0,0 STARLINK-4105,1 53168U 22083AN  24157.22786746  .00001329  00000-0  10157-3 0  9991,2 53168  53.2141 168.2426 0001361  73.0878 287.0263 15.08836529105005,6917.891,95.438,540.698,538.814,0.0
53168.0,STARLINK-4105,PAYLOAD,2024-06-05 07:03:30,15.08835814,0.0001311,53.2144,167.9456,71.2837,288.8297,9.5379e-05,1.23e-05,0.0,0 STARLINK-4105,1 53168U 22083AN  24157.29410835  .00001230  00000-0  95379-4 0  9992,2 53168  53.2144 167.9456 0001311  71.2837 288.8297 15.08835814104389,6917.893,95.438,540.665,538.851,0.0
53168.0,STARLINK-4105,PAYLOAD,2024-06-05 18:11:12,15.08838781,0.0001147,53.2151,165.8641,86.4923,273.62,0.000169,2.403e-05,0.0,0 STARLINK-4105,1 53168U 22083AN  24157.75778515  .00002403  00000-0  16900-3 0  9990,2 53168  53.2151 165.8641 0001147  86.4923 273.6200 15.08838781104451,6917.884,95.438,540.543,538.956,0.0
53168.0,STARLINK-4105,PAYLOAD,2024-06-06 06:54:17,15.08845594,0.0001196,53.2156,163.4857,82.8869,277.2259,0.00018313,2.628e-05,0.0,0 STARLINK-4105,1 53168U 22083AN  24158.28770139  .00002628  00000-0  18313-3 0  9992,2 53168  53.2156 163.4857 0001196  82.8869 277.2259 15.08845594105165,6917.863,95.437,540.556,538.901,0.0
53168.0,STARLINK-4105,PAYLOAD,2024-06-07 00:23:31,15.08850857,0.0001296,53.2158,160.2146,78.8796,281.2342,0.00011884,1.604e-05,0.0,0 STARLINK-4105,1 53168U 22083AN  24159.01633853  .00001604  00000-0  11884-3 0  9994,2 53168  53.2158 160.2146 0001296  78.8796 281.2342 15.08850857104646,6917.847,95.437,540.609,538.816,0.0
53168.0,STARLINK-4105,PAYLOAD,2024-06-08 05:00:27,15.08848649,0.0001335,53.2164,154.8621,79.8738,280.2404,1.0757e-06,-2.71e-06,0.0,0 STARLINK-4105,1 53168U 22083AN  24160.20865562 -.00000271  00000-0  10757-5 0  9991,2 53168  53.2164 154.8621 0001335  79.8738 280.2404 15.08848649105455,6917.854,95.437,540.642,538.795,0.0
53168.0,STARLINK-4105,PAYLOAD,2024-06-08 06:35:50,15.08848599,0.0001342,53.2164,154.5644,80.7583,279.3561,-2.3043e-06,-3.25e-06,0.0,0 STARLINK-4105,1 53168U 22083AN  24160.27489509 -.00000325  00000-0 -23043-5 0  9994,2 53168  53.2164 154.5644 0001342  80.7583 279.3561 15.08848599104832,6917.854,95.437,540.647,538.791,0.0
53168.0,STARLINK-4105,PAYLOAD,2024-06-08 16:08:09,15.08851456,0.0001318,53.2163,152.7799,78.9997,281.1143,1.7937e-05,-2e-08,0.0,0 STARLINK-4105,1 53168U 22083AN  24160.67232983 -.00000002  00000-0  17937-4 0  9995,2 53168  53.2163 152.7799 0001318  78.9997 281.1143 15.08851456104892,6917.845,95.437,540.622,538.799,0.0
53168.0,STARLINK-4105,PAYLOAD,2024-06-09 04:51:15,15.08836551,0.0001546,53.2185,150.4079,91.0384,269.0785,-3.6027e-05,-8.61e-06,0.0,0 STARLINK-4105,1 53168U 22083AN  24161.20226112 -.00000861  00000-0 -36027-4 0  9997,2 53168  53.2185 150.4079 0001546  91.0384 269.0785 15.08836551105607,6917.891,95.438,540.825,538.686,0.0
53168.0,STARLINK-4105,PAYLOAD,2024-06-09 06:26:38,15.08834953,0.0001569,53.2184,150.1084,93.6557,266.4615,-5.347e-05,-1.139e-05,0.0,0 STARLINK-4105,1 53168U 22083AN  24161.26850234 -.00001139  00000-0 -53470-4 0  9991,2 53168  53.2184 150.1084 0001569  93.6557 266.4615 15.08834953104981,6917.896,95.438,540.846,538.675,0.0
53168.0,STARLINK-4105,PAYLOAD,2024-06-09 22:20:29,15.08834929,0.0001473,53.2177,147.133,91.9213,268.1948,1.4723e-05,-5.4e-07,0.0,0 STARLINK-4105,1 53168U 22083AN  24161.93090031 -.00000054  00000-0  14723-4 0  9998,2 53168  53.2177 147.1330 0001473  91.9213 268.1948 15.08834929105080,6917.896,95.438,540.78,538.742,0.0
53168.0,STARLINK-4105,PAYLOAD,2024-06-10 11:03:34,15.08836893,0.0001407,53.2163,144.7533,90.0419,270.0735,8.1046e-06,-1.59e-06,0.0,0 STARLINK-4105,1 53168U 22083AN  24162.46082116 -.00000159  00000-0  81046-5 0  9991,2 53168  53.2163 144.7533 0001407  90.0419 270.0735 15.08836893105794,6917.89,95.438,540.728,538.782,0.0
53168.0,STARLINK-4105,PAYLOAD,2024-06-10 22:11:16,15.08832531,0.0001388,53.2161,142.6713,88.625,271.4901,8.6008e-05,1.081e-05,0.0,0 STARLINK-4105,1 53168U 22083AN  24162.92450210  .00001081  00000-0  86008-4 0  9992,2 53168  53.2161 142.6713 0001388  88.6250 271.4901 15.08832531105237,6917.903,95.438,540.728,538.808,0.0
